{
  "type": "FeatureCollection",
  "features": [
    {
      "type": "Feature",
      "properties": {
        "norad_id": 39766,
        "name": "ALOS-2",
        "group": "resource",
        "lat": -4.0826712833955865,
        "lon": 73.35759467426895,
        "alt_km": 634.9857250772548,
        "timestamp": "2025-12-03T19:33:06.636596+00:00",
        "meta_object_name": "ALOS-2",
        "meta_object_id": "2014-029A",
        "meta_epoch": "2025-12-03T13:04:39.315072",
        "meta_mean_motion": 14.79450558,
        "meta_eccentricity": 0.0001522,
        "meta_inclination": 97.9237,
        "meta_ra_of_asc_node": 72.5221,
        "meta_arg_of_pericenter": 108.6147,
        "meta_mean_anomaly": 251.523,
        "meta_ephemeris_type": 0,
        "meta_classification_type": "U",
        "meta_norad_cat_id": 39766,
        "meta_element_set_no": 999,
        "meta_rev_at_epoch": 62265,
        "meta_bstar": 0.00041575,
        "meta_mean_motion_dot": 3.053e-05,
        "meta_mean_motion_ddot": 0,
        "tle_line1": "1 39766U 14029A   25337.54489948  .00003053  00000+0  41575-3 0  9993",
        "tle_line2": "2 39766  97.9237  72.5221 0001522 108.6147 251.5230 14.79450558622653"
      },
      "geometry": {
        "type": "Point",
        "coordinates": [
          73.35759467426895,
          -4.0826712833955865
        ]
      }
    },
    {
      "type": "Feature",
      "properties": {
        "norad_id": 40010,
        "name": "KAZEOSAT 2",
        "group": "resource",
        "lat": 80.13038149374685,
        "lon": 132.910235770157,
        "alt_km": 610.399699530818,
        "timestamp": "2025-12-03T19:33:06.636606+00:00",
        "meta_object_name": "KAZEOSAT 2",
        "meta_object_id": "2014-033A",
        "meta_epoch": "2025-12-03T12:42:29.516256",
        "meta_mean_motion": 14.85143352,
        "meta_eccentricity": 0.0007247,
        "meta_inclination": 97.5511,
        "meta_ra_of_asc_node": 182.3192,
        "meta_arg_of_pericenter": 241.1944,
        "meta_mean_anomaly": 118.8545,
        "meta_ephemeris_type": 0,
        "meta_classification_type": "U",
        "meta_norad_cat_id": 40010,
        "meta_element_set_no": 999,
        "meta_rev_at_epoch": 61991,
        "meta_bstar": 0.00014562,
        "meta_mean_motion_dot": 1.196e-05,
        "meta_mean_motion_ddot": 0,
        "tle_line1": "1 40010U 14033A   25337.52950829  .00001196  00000+0  14562-3 0  9993",
        "tle_line2": "2 40010  97.5511 182.3192 0007247 241.1944 118.8545 14.85143352619910"
      },
      "geometry": {
        "type": "Point",
        "coordinates": [
          132.910235770157,
          80.13038149374685
        ]
      }
    },
    {
      "type": "Feature",
      "properties": {
        "norad_id": 40011,
        "name": "HODOYOSHI-4",
        "group": "resource",
        "lat": 79.3795619830929,
        "lon": 32.0891974532654,
        "alt_km": 609.5682653742797,
        "timestamp": "2025-12-03T19:33:06.636617+00:00",
        "meta_object_name": "HODOYOSHI-4",
        "meta_object_id": "2014-033B",
        "meta_epoch": "2025-12-03T12:39:19.267776",
        "meta_mean_motion": 14.87425789,
        "meta_eccentricity": 0.0022672,
        "meta_inclination": 97.5415,
        "meta_ra_of_asc_node": 166.8651,
        "meta_arg_of_pericenter": 232.2352,
        "meta_mean_anomaly": 127.6811,
        "meta_ephemeris_type": 0,
        "meta_classification_type": "U",
        "meta_norad_cat_id": 40011,
        "meta_element_set_no": 999,
        "meta_rev_at_epoch": 61971,
        "meta_bstar": 0.00032492,
        "meta_mean_motion_dot": 2.902e-05,
        "meta_mean_motion_ddot": 0,
        "tle_line1": "1 40011U 14033B   25337.52730634  .00002902  00000+0  32492-3 0  9992",
        "tle_line2": "2 40011  97.5415 166.8651 0022672 232.2352 127.6811 14.87425789619715"
      },
      "geometry": {
        "type": "Point",
        "coordinates": [
          32.0891974532654,
          79.3795619830929
        ]
      }
    },
    {
      "type": "Feature",
      "properties": {
        "norad_id": 40013,
        "name": "DEIMOS-2",
        "group": "resource",
        "lat": 76.48401490683847,
        "lon": -179.87102986542857,
        "alt_km": 581.1204501664834,
        "timestamp": "2025-12-03T19:33:06.636627+00:00",
        "meta_object_name": "DEIMOS-2",
        "meta_object_id": "2014-033D",
        "meta_epoch": "2025-12-03T12:45:56.952288",
        "meta_mean_motion": 14.92903521,
        "meta_eccentricity": 7.95e-05,
        "meta_inclination": 97.6072,
        "meta_ra_of_asc_node": 213.6351,
        "meta_arg_of_pericenter": 86.44,
        "meta_mean_anomaly": 273.6911,
        "meta_ephemeris_type": 0,
        "meta_classification_type": "U",
        "meta_norad_cat_id": 40013,
        "meta_element_set_no": 999,
        "meta_rev_at_epoch": 60852,
        "meta_bstar": 0.00036746,
        "meta_mean_motion_dot": 3.756e-05,
        "meta_mean_motion_ddot": 0,
        "tle_line1": "1 40013U 14033D   25337.53190917  .00003756  00000+0  36746-3 0  9993",
        "tle_line2": "2 40013  97.6072 213.6351 0000795  86.4400 273.6911 14.92903521608521"
      },
      "geometry": {
        "type": "Point",
        "coordinates": [
          -179.87102986542857,
          76.48401490683847
        ]
      }
    },
    {
      "type": "Feature",
      "properties": {
        "norad_id": 40015,
        "name": "HODOYOSHI-3",
        "group": "resource",
        "lat": 69.81157082745254,
        "lon": -14.612864761806618,
        "alt_km": 629.5109310989192,
        "timestamp": "2025-12-03T19:33:06.636637+00:00",
        "meta_object_name": "HODOYOSHI-3",
        "meta_object_id": "2014-033F",
        "meta_epoch": "2025-12-03T10:58:29.727264",
        "meta_mean_motion": 14.84753679,
        "meta_eccentricity": 0.0031834,
        "meta_inclination": 97.6193,
        "meta_ra_of_asc_node": 143.6962,
        "meta_arg_of_pericenter": 279.7374,
        "meta_mean_anomaly": 80.0247,
        "meta_ephemeris_type": 0,
        "meta_classification_type": "U",
        "meta_norad_cat_id": 40015,
        "meta_element_set_no": 999,
        "meta_rev_at_epoch": 61857,
        "meta_bstar": 0.00032694,
        "meta_mean_motion_dot": 2.744e-05,
        "meta_mean_motion_ddot": 0,
        "tle_line1": "1 40015U 14033F   25337.45728851  .00002744  00000+0  32694-3 0  9994",
        "tle_line2": "2 40015  97.6193 143.6962 0031834 279.7374  80.0247 14.84753679618578"
      },
      "geometry": {
        "type": "Point",
        "coordinates": [
          -14.612864761806618,
          69.81157082745254
        ]
      }
    },
    {
      "type": "Feature",
      "properties": {
        "norad_id": 40053,
        "name": "SPOT 7",
        "group": "resource",
        "lat": -62.00743715167619,
        "lon": -155.42939824995582,
        "alt_km": 698.9406896081446,
        "timestamp": "2025-12-03T19:33:06.636647+00:00",
        "meta_object_name": "SPOT 7",
        "meta_object_id": "2014-034A",
        "meta_epoch": "2025-12-03T11:51:59.475168",
        "meta_mean_motion": 14.60714312,
        "meta_eccentricity": 0.0001518,
        "meta_inclination": 98.0919,
        "meta_ra_of_asc_node": 39.7826,
        "meta_arg_of_pericenter": 96.9873,
        "meta_mean_anomaly": 263.15,
        "meta_ephemeris_type": 0,
        "meta_classification_type": "U",
        "meta_norad_cat_id": 40053,
        "meta_element_set_no": 999,
        "meta_rev_at_epoch": 60856,
        "meta_bstar": 0.00019521,
        "meta_mean_motion_dot": 9.06e-06,
        "meta_mean_motion_ddot": 0,
        "tle_line1": "1 40053U 14034A   25337.49443837  .00000906  00000+0  19521-3 0  9991",
        "tle_line2": "2 40053  98.0919  39.7826 0001518  96.9873 263.1500 14.60714312608563"
      },
      "geometry": {
        "type": "Point",
        "coordinates": [
          -155.42939824995582,
          -62.00743715167619
        ]
      }
    },
    {
      "type": "Feature",
      "properties": {
        "norad_id": 40072,
        "name": "SKYSAT-B",
        "group": "resource",
        "lat": 44.383845909189795,
        "lon": -87.2240202344482,
        "alt_km": 605.2614876084444,
        "timestamp": "2025-12-03T19:33:06.636657+00:00",
        "meta_object_name": "SKYSAT-B",
        "meta_object_id": "2014-037D",
        "meta_epoch": "2025-12-03T11:16:36.073344",
        "meta_mean_motion": 14.87269677,
        "meta_eccentricity": 0.0005393,
        "meta_inclination": 98.3594,
        "meta_ra_of_asc_node": 280.6875,
        "meta_arg_of_pericenter": 178.8578,
        "meta_mean_anomaly": 181.265,
        "meta_ephemeris_type": 0,
        "meta_classification_type": "U",
        "meta_norad_cat_id": 40072,
        "meta_element_set_no": 999,
        "meta_rev_at_epoch": 61686,
        "meta_bstar": 0.00034703,
        "meta_mean_motion_dot": 3.069e-05,
        "meta_mean_motion_ddot": 0,
        "tle_line1": "1 40072U 14037D   25337.46986196  .00003069  00000+0  34703-3 0  9994",
        "tle_line2": "2 40072  98.3594 280.6875 0005393 178.8578 181.2650 14.87269677616860"
      },
      "geometry": {
        "type": "Point",
        "coordinates": [
          -87.2240202344482,
          44.383845909189795
        ]
      }
    }
  ]
}